STARLINK-5040           
1 53914U 22119AE  24316.05774021  .00001989  00000+0  14303-3 0  9999
2 53914  53.2175 325.1766 0001473 101.2957 258.8201 15.08839851118393
STARLINK-5017           
1 53915U 22119AF  24315.74127608  .00001392  00000+0  10556-3 0  9992
2 53915  53.2174 326.7509 0001683  98.8708 261.2475 15.08842369118763
STARLINK-5051           
1 53916U 22119AG  24315.69153713  .00018119  00000+0  11529-2 0  9998
2 53916  53.2179 306.5274 0001676 116.5538 243.5626 15.08862737119050
STARLINK-5036           
1 53917U 22119AH  24315.33646804  .00018006  00000+0  11464-2 0  9991
2 53917  53.2171 328.4887 0001656  96.2275 263.8906 15.08844856118705
STARLINK-5012           
1 53918U 22119AJ  24316.05405791  .00000550  00000+0  52674-4 0  9995
2 53918  53.2176 325.1495 0001599  95.1196 264.9978 15.08836414118393
STARLINK-5023           
1 53919U 22119AK  24315.85165029  .00000769  00000+0  66435-4 0  9992
2 53919  53.2166 326.0172 0001419 104.4961 255.6188 15.08838561118788
STARLINK-5025           
1 53920U 22119AL  24315.73854851  .00000236  00000+0  32915-4 0  9994
2 53920  53.2182 326.7253 0001600  98.4830 261.6343 15.08845244118768
STARLINK-5002           
1 53922U 22119AN  24315.84059936 -.00000385  00000+0 -60740-5 0  9994
2 53922  53.2166 325.9503 0001542  88.6369 271.4800 15.08835509118786
STARLINK-5004           
1 53923U 22119AP  24316.04668862  .00000703  00000+0  62224-4 0  9992
2 53923  53.2176 325.1054 0001209  53.8597 306.2507 15.08837435118396
STARLINK-5001           
1 53924U 22119AQ  24315.72147583 -.00000241  00000+0  29172-5 0  9993
2 53924  53.2176 321.6481 0001339 102.2356 257.8786 15.08838892118835
STARLINK-5011           
1 53925U 22119AR  24315.75961421  .00006100  00000+0  40092-3 0  9993
2 53925  53.2172 326.1604 0001708  91.2995 268.8193 15.08849296118772
STARLINK-5014           
1 53926U 22119AS  24316.04162122  .00007641  00000+0  49760-3 0  9990
2 53926  53.2176 320.0840 0001443  85.6482 274.4675 15.08843141118463
STARLINK-5008           
1 53927U 22119AT  24316.03930080  .00105608  00000+0  47281-2 0  9993
2 53927  53.2164 316.6131 0006323 327.2359  32.8245 15.20417001118516
STARLINK-5009           
1 53928U 22119AU  24315.72010179 -.00001687  00000+0 -87912-4 0  9998
2 53928  53.2186 316.6416 0001610  90.7747 269.3429 15.08834218118907
STARLINK-5018           
1 53929U 22119AV  24315.76802821  .00001962  00000+0  14132-3 0  9993
2 53929  53.2163 326.9002 0001695  85.1363 274.9823 15.08840176118767
STARLINK-5010           
1 53930U 22119AW  24316.03655170  .00001522  00000+0  11373-3 0  9995
2 53930  53.2186 315.0658 0002286  97.3769 262.7483 15.08843302118538
STARLINK-5015           
1 53931U 22119AX  24315.69660566  .00000816  00000+0  69377-4 0  9995
2 53931  53.2180 311.5154 0001801  99.3709 260.7486 15.08842950118554
STARLINK-4772           
1 53932U 22119AY  24315.73713429  .00002093  00000+0  14956-3 0  9999
2 53932  53.2170 311.7538 0001987 102.0849 258.0366 15.08844173118987
STARLINK-4782           
1 53933U 22119AZ  24315.71640702 -.00000409  00000+0 -76463-5 0  9995
2 53933  53.2175 316.6210 0001103 103.7733 256.3382 15.08840526118903
STARLINK-4775           
1 53934U 22119BA  24315.26977092  .00004315  00000+0  28901-3 0  9991
2 53934  53.2184 313.8100 0002078 107.6436 252.4783 15.08846526118926
STARLINK-5000           
1 53935U 22119BB  24315.25227483  .00012492  00000+0  80087-3 0  9991
2 53935  53.2157 303.7193 0000642 101.3709 258.7355 15.08872169119046
STARLINK-4791           
1 53936U 22119BC  24315.70396750  .00006188  00000+0  40635-3 0  9996
2 53936  53.2180 311.5518 0002544  84.4207 275.7075 15.08855555118988
STARLINK-4765           
1 53937U 22119BD  24316.25001157  .01206876  00000+0  50493-1 0  9990
2 53937  53.2139 304.1005 0001356 100.3420 358.0675 15.20163145118709
STARLINK-4633           
1 53964U 22125A   24316.16172579  .00003325  00000+0  22701-3 0  9990
2 53964  53.2151 234.9107 0004589  82.4113 277.7400 15.08829873116395
STARLINK-4578           
1 53965U 22125B   24316.15900418 -.00005929  00000+0 -35495-3 0  9999
2 53965  53.2143 234.8977 0001439  83.1142 277.0013 15.08820457116394
STARLINK-4635           
1 53966U 22125C   24316.08811685 -.00007338  00000+0 -44362-3 0  9998
2 53966  53.2156 235.1627 0001679  58.7483 301.3673 15.08820878116386
STARLINK-4634           
1 53967U 22125D   24316.08443605 -.00011583  00000+0 -71140-3 0  9993
2 53967  53.2154 235.1413 0001586  63.2555 296.8599 15.08811297116386
STARLINK-4629           
1 53968U 22125E   24316.07340311 -.00003691  00000+0 -21403-3 0  9991
2 53968  53.2173 235.0721 0002850  99.6147 260.5167 15.08813937116386
STARLINK-4468           
1 53969U 22125F   24316.08076665 -.00004257  00000+0 -24960-3 0  9991
2 53969  53.2175 235.1197 0002365  86.0738 274.0525 15.08823599116387
STARLINK-4567           
1 53970U 22125G   24316.14931275 -.00009978  00000+0 -61026-3 0  9996
2 53970  53.2162 229.8563 0002472  82.6741 277.4532 15.08802325116465
STARLINK-4639           
1 53971U 22125H   24316.07707465 -.00006189  00000+0 -37142-3 0  9994
2 53971  53.2173 235.1045 0000799 109.8752 250.2326 15.08809973116384
STARLINK-5156           
1 53973U 22125K   24316.06969995 -.00003006  00000+0 -17089-3 0  9996
2 53973  53.2170 235.0538 0002119  84.8420 275.2814 15.08829278116380
STARLINK-5159           
1 53974U 22125L   24316.10462264 -.00011027  00000+0 -67633-3 0  9991
2 53974  53.2154 214.6205 0001508  72.5808 287.5349 15.08809282116676
STARLINK-5137           
1 53975U 22125M   24316.03883480  .00005272  00000+0  34900-3 0  9995
2 53975  53.2144 229.8876 0003288  91.3388 268.7981 15.08849637116454
STARLINK-5134           
1 53976U 22125N   24316.02004860 -.00005670  00000+0 -33855-3 0  9994
2 53976  53.2163 215.5104 0001772  96.5235 263.5959 15.08822365116655
STARLINK-5094           
1 53977U 22125P   24316.15666230  .00033292  00000+0  21019-2 0  9991
2 53977  53.2158 229.8954 0001329  68.5430 291.5704 15.08807576116460
STARLINK-5148           
1 53978U 22125Q   24315.47584892 -.00005019  00000+0 -29766-3 0  9995
2 53978  53.2163 232.7531 0001876  82.6087 277.5118 15.08814887116290
STARLINK-5123           
1 53979U 22125R   24316.14559846 -.00013038  00000+0 -80334-3 0  9990
2 53979  53.2158 229.8308 0000202 188.8258 171.2731 15.08808430116462
STARLINK-5133           
1 53980U 22125S   24316.05357487  .00002761  00000+0  19159-3 0  9995
2 53980  53.2169 229.9615 0002057  97.2956 262.8270 15.08824063116450
STARLINK-5149           
1 53981U 22125T   24316.11937605 -.00000045  00000+0  15254-4 0  9996
2 53981  53.2158 214.7241 0001784  98.2813 261.8381 15.08805103116675
STARLINK-5120           
1 53982U 22125U   24316.14788573  .00001796  00000+0  13079-3 0  9993
2 53982  53.2162 224.8567 0001564  89.8023 270.3149 15.08866664116530
STARLINK-5103           
1 53983U 22125V   24315.46433017 -.00002207  00000+0 -12060-3 0  9997
2 53983  53.2158 217.7238 0002720  88.3985 271.7319 15.08828757116500
STARLINK-5142           
1 53984U 22125W   24316.15897099  .00051797  00000+0  32515-2 0  9991
2 53984  53.2151 224.9239 0000896  71.6860 288.4229 15.08810079116530
STARLINK-5147           
1 53985U 22125X   24316.16634562 -.00008132  00000+0 -49371-3 0  9993
2 53985  53.2182 224.9716 0001969  82.5781 277.5435 15.08814546116531
STARLINK-5119           
1 53986U 22125Y   24316.11200085 -.00003141  00000+0 -17939-3 0  9998
2 53986  53.2154 214.6622 0000868 100.5126 259.5964 15.08833745116678
STARLINK-5112           
1 53987U 22125Z   24316.03017924  .00000147  00000+0  27313-4 0  9997
2 53987  53.2170 225.5395 0001600  94.0968 266.0207 15.08828146116516
STARLINK-5113           
1 53988U 22125AA  24316.02281027  .00001400  00000+0  10608-3 0  9995
2 53988  53.2168 225.4968 0001412  82.3306 277.7846 15.08821984116517
STARLINK-5115           
1 53989U 22125AB  24315.91668981  .01197924  00000+0  52098-1 0  9996
2 53989  53.2140 225.7809 0001258  98.6576 148.6742 15.18842167  5854
STARLINK-5118           
1 53991U 22125AD  24316.00896406  .00001293  00000+0  99315-4 0  9993
2 53991  53.2182 215.3710 0001671 104.4940 255.6237 15.08849670116653
STARLINK-5108           
1 53992U 22125AE  24316.14423944 -.00006563  00000+0 -39487-3 0  9992
2 53992  53.2160 224.8360 0001541  88.0220 272.0949 15.08816285116536
STARLINK-5121           
1 53993U 22125AF  24316.12074074 -.00009809  00000+0 -59953-3 0  9993
2 53993  53.2158 219.6973 0001660  75.7045 284.4131 15.08809267116606
STARLINK-5125           
1 53994U 22125AG  24315.07332400  .00000506  00000+0  49886-4 0  9995
2 53994  53.2167 229.5312 0002140 115.7415 244.3798 15.08842722116308
STARLINK-5097           
1 53995U 22125AH  24315.14693967 -.00000447  00000+0 -10009-4 0  9993
2 53995  53.2177 229.2759 0001850  79.2853 280.8347 15.08847395116305
STARLINK-5131           
1 53996U 22125AJ  24315.46708686 -.00004262  00000+0 -24992-3 0  9998
2 53996  53.2157 227.7158 0002014  80.5256 279.5964 15.08828192116365
STARLINK-5130           
1 53997U 22125AK  24316.03110928 -.00000777  00000+0 -30763-4 0  9990
2 53997  53.2166 215.5717 0001625  88.4520 271.6658 15.08829457116650
STARLINK-5128           
1 53998U 22125AL  24316.05588585  .00001962  00000+0  14131-3 0  9996
2 53998  53.2171 224.9987 0000548  80.3615 279.7439 15.08845864116521
STARLINK-5079           
1 53999U 22125AM  24315.14322915  .00004310  00000+0  28853-3 0  9995
2 53999  53.2160 229.2487 0000859  70.6703 289.4382 15.08865518116318
STARLINK-5088           
1 54000U 22125AN  24316.09366661 -.00008836  00000+0 -53838-3 0  9990
2 54000  53.2157 215.2493 0001987  67.3528 292.7674 15.08794878116660
STARLINK-5109           
1 54002U 22125AQ  24315.98321691 -.00002442  00000+0 -13545-3 0  9991
2 54002  53.2153 215.3040 0001997  78.6484 281.4733 15.08811867116630
